ONEWEB-0144             
1 47290U 20100AJ  25065.57548327  .00000400  00000+0  10752-2 0  9994
2 47290  87.8801  83.7194 0001821  82.4775 277.6560 13.12443862203230
ONEWEB-0145             
1 47291U 20100AK  25065.54628935 -.00000270  00000+0 -78611-3 0  9992
2 47291  87.8802  83.7504 0001934  88.1596 271.9754 13.12444699203428
ONEWEB-0146             
1 47292U 20100AL  25065.54305296 -.00000315  00000+0 -91187-3 0  9998
2 47292  87.8799  83.7368 0002131 101.5326 258.6042 13.12443899203336
ONEWEB-0147             
1 47293U 20100AM  25066.42384020  .00000284  00000+0  75443-3 0  9999
2 47293  87.8796  83.5446 0002112  85.3411 274.7959 13.12442333203341
ONEWEB-0115             
1 48042U 21025A   25065.67368800 -.00000223  00000+0 -64673-3 0  9991
2 48042  87.8897  53.1451 0001942  87.7168 272.4183 13.13438309192227
ONEWEB-0152             
1 48043U 21025B   25066.52485926 -.00000256  00000+0 -73830-3 0  9997
2 48043  87.8903  52.9836 0001990  87.6637 272.4720 13.13348307192307
ONEWEB-0153             
1 48044U 21025C   25065.66473051  .00000015  00000+0  59964-5 0  9993
2 48044  87.8905  53.1499 0001811  84.4578 275.6758 13.13328416192179
ONEWEB-0154             
1 48045U 21025D   25066.42330753  .00000251  00000+0  65214-3 0  9995
2 48045  87.8902  53.0018 0001948  85.8454 274.2898 13.13352540192245
